ALOS-2                  
1 39766U 14029A   26178.96042987  .00001378  00000+0  19141-3 0  9993
2 39766  97.9224 275.9697 0001594  90.1797 269.9598 14.79468442653172
KAZEOSAT 2              
1 40010U 14033A   26178.94028730  .00000496  00000+0  63228-4 0  9996
2 40010  97.5407  17.9845 0007073 289.0205  71.0244 14.85482324650556
HODOYOSHI-4             
1 40011U 14033B   26178.92689043  .00001678  00000+0  18706-3 0  9998
2 40011  97.5450   3.2311 0022034 270.4674  89.4018 14.88151466650408
DEIMOS-2                
1 40013U 14033D   26178.90118676  .00001085  00000+0  10753-3 0  9993
2 40013  97.5825  53.0137 0001114  52.0181 308.1140 14.93752860639324
HODOYOSHI-3             
1 40015U 14033F   26178.89577606  .00001039  00000+0  12575-3 0  9998
2 40015  97.6426 341.5058 0031821 321.3659  38.5280 14.85409015649211
SPOT 7                  
1 40053U 14034A   26178.93432574  .00000292  00000+0  68925-4 0  9991
2 40053  98.0631 241.1490 0001374  95.9813 264.1545 14.60966682638701
SKYSAT-B                
1 40072U 14037D   26178.81680867  .00001266  00000+0  14451-3 0  9998
2 40072  98.3842 138.3879 0004300 236.1098 123.9708 14.88053149647543
WORLDVIEW-3 (WV-3)      
1 40115U 14048A   26178.94816125  .00000793  00000+0  99169-4 0  9994
2 40115  97.8564 253.6323 0000119  31.2268 328.8954 14.85038529643501
GAOFEN-2                
1 40118U 14049A   26178.91957539  .00000090  00000+0  18590-4 0  9999
2 40118  98.0111 243.1163 0006832 187.9312 172.1793 14.80907345640827
YAOGAN-21               
1 40143U 14053A   26178.91347771  .00006934  00000+0  26773-3 0  9997
2 40143  97.1475 218.6886 0009522  63.1202 297.1010 15.26526535656599
YAOGAN-22               
1 40275U 14063A   26178.83283604 -.00000020  00000+0  72091-4 0  9995
2 40275 100.7737 330.2834 0006576 161.8680 198.2667 13.15531306561214
ASNARO                  
1 40298U 14070A   26178.95919463  .00006930  00000+0  32854-3 0  9997
2 40298  97.3455 254.7822 0006451 134.6964 225.4798 15.19586598645646
YAOGAN-24               
1 40310U 14072A   26178.92732503  .00000142  00000+0  28318-4 0  9999
2 40310  98.1494 316.3566 0013339 227.1493 132.8597 14.76096139625309
CBERS 4                 
1 40336U 14079A   26178.98040757  .00000061  00000+0  35851-4 0  9993
2 40336  98.3534 235.4733 0001504  56.3683 303.7646 14.35511613605503
YAOGAN-26               
1 40362U 14088A   26178.93195699  .00033147  00000+0  63866-3 0  9990
2 40362  97.0637 178.8914 0004733  40.9704 319.1902 15.47787216639368
SMAP                    
1 40376U 15003A   26178.95170132  .00000420  00000+0  90335-4 0  9990
2 40376  98.1276 185.8937 0001439  97.5813 262.5553 14.63375460609198
KOMPSAT-3A              
1 40536U 15014A   26178.92943530  .00027728  00000+0  39255-3 0  9990
2 40536  97.6882 171.0804 0057089 136.1974 224.3828 15.54513811623487
SENTINEL-2A             
1 40697U 15028A   26178.98392888 -.00000178  00000+0 -51156-4 0  9990
2 40697  98.5688 253.6823 0001183  93.7217 266.4101 14.30817016575270
GAOFEN-8                
1 40701U 15030A   26178.96067866  .00023144  00000+0  46935-3 0  9996
2 40701  97.6899  12.9801 0009463 149.6422 210.5376 15.46342908613111
CARBONITE 1 (CBNT-1)    
1 40718U 15032D   26178.97371339  .00001936  00000+0  24060-3 0  9990
2 40718  97.6506 356.5886 0012948 258.8097 101.1662 14.83618734590948
YAOGAN-27               
1 40878U 15040A   26178.97555822 -.00000459  00000+0 -10983-2 0  9996
2 40878 100.1151 164.8899 0008017 184.5329 175.5713 13.16069505519089
GAOFEN-9 01             
1 40894U 15047A   26178.92643541  .00000985  00000+0  12685-3 0  9996
2 40894  97.6271 214.1331 0028862 104.2367 256.2056 14.82903616581788
YAOGAN-28               
1 41026U 15064A   26178.93529973  .00007070  00000+0  26455-3 0  9998
2 41026  97.3084 316.9788 0011521 147.0251 213.1710 15.27552710592329
YAOGAN-29               
1 41038U 15069A   26178.97267684  .00000645  00000+0  85907-4 0  9997
2 41038  98.0027 207.6220 0001991  38.9108 321.2249 14.83093980572228
KENT RIDGE 1            
1 41167U 15077B   26178.37904035  .00004094  00000+0  13656-3 0  9994
2 41167  14.9780 190.1878 0008176  22.4763 337.5917 15.23188957582650
GAOFEN-4                
1 41194U 15083A   26179.21711332 -.00000324  00000+0  00000+0 0  9999
2 41194   0.3854  84.0020 0004438 112.8560 263.3227  1.00272860 38649
JASON-3                 
1 41240U 16002A   26178.95420117 -.00000079  00000+0 -65300-4 0  9998
2 41240  66.0416 103.1997 0008385 272.2248  87.7810 12.87623096488631
SENTINEL-3A             
1 41335U 16011A   26178.94644026  .00000095  00000+0  57483-4 0  9998
2 41335  98.6246 246.1754 0001435  96.4602 263.6742 14.26735411539597
ZIYUAN 3-02 (ZY 3-02)   
1 41556U 16033A   26178.97720226  .00005073  00000+0  22959-3 0  9997
2 41556  97.3840 254.5438 0012548 248.8686 111.1209 15.21278430559622
CARTOSAT-2C             
1 41599U 16040A   26178.92823509  .00002468  00000+0  12012-3 0  9999
2 41599  97.4485 238.7583 0010479  98.5320 261.7102 15.19268907555340
