OBJECT_NAME,OBJECT_ID,EPOCH,MEAN_MOTION,ECCENTRICITY,INCLINATION,RA_OF_ASC_NODE,ARG_OF_PERICENTER,MEAN_ANOMALY,EPHEMERIS_TYPE,CLASSIFICATION_TYPE,NORAD_CAT_ID,ELEMENT_SET_NO,REV_AT_EPOCH,BSTAR,MEAN_MOTION_DOT,MEAN_MOTION_DDOT
ALOS-2,2014-029A,2026-06-27T23:03:01.140768,14.79468442,.0001594,97.9224,275.9697,90.1797,269.9598,0,U,39766,999,65317,.19140824E-3,.1378E-4,0
KAZEOSAT 2,2014-033A,2026-06-27T22:34:00.822720,14.85482324,.00070732,97.5407,17.9845,289.0205,71.0244,0,U,40010,999,65055,.63227627E-4,.496E-5,0
HODOYOSHI-4,2014-033B,2026-06-27T22:14:43.333152,14.88151466,.00220347,97.5450,3.2311,270.4674,89.4018,0,U,40011,999,65040,.18706172E-3,.1678E-4,0
DEIMOS-2,2014-033D,2026-06-27T21:37:42.536064,14.93752860,.0001114,97.5825,53.0137,52.0181,308.1140,0,U,40013,999,63932,.10752732E-3,.1085E-4,0
HODOYOSHI-3,2014-033F,2026-06-27T21:29:55.051584,14.85409015,.00318216,97.6426,341.5058,321.3659,38.5280,0,U,40015,999,64921,.12575435E-3,.1039E-4,0
SPOT 7,2014-034A,2026-06-27T22:25:25.743936,14.60966682,.00013743,98.0631,241.1490,95.9813,264.1545,0,U,40053,999,63870,.68925019E-4,.292E-5,0
SKYSAT-B,2014-037D,2026-06-27T19:36:12.269088,14.88053149,.00043001,98.3842,138.3879,236.1098,123.9708,0,U,40072,999,64754,.14450588E-3,.1266E-4,0
WORLDVIEW-3 (WV-3),2014-048A,2026-06-27T22:45:21.132000,14.85038529,.00001192,97.8564,253.6323,31.2268,328.8954,0,U,40115,999,64350,.99169475E-4,.793E-5,0
GAOFEN-2,2014-049A,2026-06-27T22:04:11.313696,14.80907345,.0006832,98.0111,243.1163,187.9312,172.1793,0,U,40118,999,64082,.18590056E-4,.9E-6,0
YAOGAN-21,2014-053A,2026-06-27T21:55:24.474144,15.26526535,.00095224,97.1475,218.6886,63.1202,297.1010,0,U,40143,999,65659,.26772992E-3,.6934E-4,0
YAOGAN-22,2014-063A,2026-06-27T19:59:17.033856,13.15531306,.00065768,100.7737,330.2834,161.8680,198.2667,0,U,40275,999,56121,.72091322E-4,-.2E-6,0
ASNARO,2014-070A,2026-06-27T23:01:14.416032,15.19586598,.00064511,97.3455,254.7822,134.6964,225.4798,0,U,40298,999,64564,.32854419E-3,.693E-4,0
YAOGAN-24,2014-072A,2026-06-27T22:15:20.882592,14.76096139,.00133393,98.1494,316.3566,227.1493,132.8597,0,U,40310,999,62530,.28318306E-4,.142E-5,0
CBERS 4,2014-079A,2026-06-27T23:31:47.214048,14.35511613,.0001504,98.3534,235.4733,56.3683,303.7646,0,U,40336,999,60550,.35850573E-4,.61E-6,0
YAOGAN-26,2014-088A,2026-06-27T22:22:01.083936,15.47787216,.00047334,97.0637,178.8914,40.9704,319.1902,0,U,40362,999,63936,.63866389E-3,.33147E-3,0
SMAP,2015-003A,2026-06-27T22:50:26.994048,14.63375460,.00014393,98.1276,185.8937,97.5813,262.5553,0,U,40376,999,60919,.90335047E-4,.42E-5,0
KOMPSAT-3A,2015-014A,2026-06-27T22:18:23.209920,15.54513811,.00570892,97.6882,171.0804,136.1974,224.3828,0,U,40536,999,62348,.39254837E-3,.27728E-3,0
SENTINEL-2A,2015-028A,2026-06-27T23:36:51.455232,14.30817016,.00011837,98.5688,253.6823,93.7217,266.4101,0,U,40697,999,57527,-.51155562E-4,-.178E-5,0
GAOFEN-8,2015-030A,2026-06-27T23:03:22.636224,15.46342908,.00094636,97.6899,12.9801,149.6422,210.5376,0,U,40701,999,61311,.46934656E-3,.23144E-3,0
CARBONITE 1 (CBNT-1),2015-032D,2026-06-27T23:22:08.836896,14.83618734,.00129485,97.6506,356.5886,258.8097,101.1662,0,U,40718,999,59094,.24059779E-3,.1936E-4,0
YAOGAN-27,2015-040A,2026-06-27T23:24:48.230208,13.16069505,.0008017,100.1151,164.8899,184.5329,175.5713,0,U,40878,999,51908,-.10983113E-2,-.459E-5,0
GAOFEN-9 01,2015-047A,2026-06-27T22:14:04.019424,14.82903616,.00288622,97.6271,214.1331,104.2367,256.2056,0,U,40894,999,58178,.12685103E-3,.985E-5,0
YAOGAN-28,2015-064A,2026-06-27T22:26:49.896672,15.27552710,.00115217,97.3084,316.9788,147.0251,213.1710,0,U,41026,999,59232,.26455364E-3,.707E-4,0
YAOGAN-29,2015-069A,2026-06-27T23:20:39.278976,14.83093980,.00019918,98.0027,207.6220,38.9108,321.2249,0,U,41038,999,57222,.85906689E-4,.645E-5,0
KENT RIDGE 1,2015-077B,2026-06-27T09:05:49.086240,15.23188957,.00081766,14.9780,190.1878,22.4763,337.5917,0,U,41167,999,58265,.13655791E-3,.4094E-4,0
GAOFEN-4,2015-083A,2026-06-28T05:12:38.590848,1.00272860,.0004438,0.3854,84.0020,112.8560,263.3227,0,U,41194,999,3864,0,-.324E-5,0
JASON-3,2016-002A,2026-06-27T22:54:02.981088,12.87623096,.00083854,66.0416,103.1997,272.2248,87.7810,0,U,41240,999,48863,-.652997E-4,-.79E-6,0
SENTINEL-3A,2016-011A,2026-06-27T22:42:52.438464,14.26735411,.00014355,98.6246,246.1754,96.4602,263.6742,0,U,41335,999,53959,.57482565E-4,.95E-6,0
ZIYUAN 3-02 (ZY 3-02),2016-033A,2026-06-27T23:27:10.275264,15.21278430,.00125483,97.3840,254.5438,248.8686,111.1209,0,U,41556,999,55962,.22959099E-3,.5073E-4,0
CARTOSAT-2C,2016-040A,2026-06-27T22:16:39.511776,15.19268907,.0010479,97.4485,238.7583,98.5320,261.7102,0,U,41599,999,55534,.12012276E-3,.2468E-4,0
